{"spkid": "20085236", "covariance": {"epoch": "2458310.5", "labels": ["e", "q", "tp", "node", "peri", "i", "A2"], "data": [["1.103171398060417E-18", "-1.298873829765526E-18", "-2.481552310620998E-17", "7.355128791561536E-17", "-2.499398934136941E-17", "-2.213018693068376E-17", "8.943500984841686E-25"], ["-1.298873829765526E-18", "1.59648278533828E-18", "-2.882342230976918E-17", "-1.019254856043051E-16", "3.934104787603429E-17", "3.828102190400424E-17", "-4.694284127946655E-25"], ["-2.481552310620998E-17", "-2.882342230976918E-17", "1.579194423829509E-13", "1.030323610101261E-13", "-1.497796945360989E-14", "1.347586588436095E-14", "-7.118226465196178E-22"], ["7.355128791561536E-17", "-1.019254856043051E-16", "1.030323610101261E-13", "1.787307668896661E-13", "-7.654538137197149E-14", "2.654252253104933E-14", "-1.694026274228337E-22"], ["-2.499398934136941E-17", "3.934104787603429E-17", "-1.497796945360989E-14", "-7.654538137197149E-14", "5.723618610131632E-14", "-1.803441223046474E-15", "6.324234026071562E-23"], ["-2.213018693068376E-17", "3.828102190400424E-17", "1.347586588436095E-14", "2.654252253104933E-14", "-1.803441223046474E-15", "2.008413008972161E-14", "6.022382921500005E-23"], ["8.943500984841686E-25", "-4.694284127946655E-25", "-7.118226465196178E-22", "-1.694026274228337E-22", "6.324234026071562E-23", "6.022382921500005E-23", "1.382352512755126E-29"]], "elements": [{"name": "e", "sigma": 1.05031966470233e-09, "units": null, "title": "eccentricity", "value": ".3111100813305661", "label": "e"}, {"value": ".8500799815079385", "title": "perihelion distance", "units": "au", "name": "q", "sigma": 1.26351999799698e-09, "label": "q"}, {"units": "TDB", "title": "time of perihelion passage", "value": "2458247.101128010825", "sigma": 3.97390793027406e-07, "name": "tp", "label": "tp"}, {"title": "longitude of the ascending node", "value": "54.39721779017716", "units": "deg", "sigma": 4.2276561696721e-07, "name": "om", "label": "node"}, {"sigma": 2.39240853746421e-07, "name": "w", "title": "argument of perihelion", "value": "293.8583173795986", "units": "deg", "label": "peri"}, {"label": "i", "units": "deg", "value": "12.80531296892602", "title": "inclination", "sigma": 1.41718488877498e-07, "name": "i"}]}, "elements": [{"label": "e", "name": "e", "sigma": "1.0605E-9", "value": ".3111169951456499", "title": "eccentricity", "units": null}, {"units": "au", "value": "1.233777970028331", "title": "semi-major axis", "name": "a", "sigma": "1.4519E-9", "label": "a"}, {"title": "perihelion distance", "value": ".8499286753162169", "units": "au", "name": "q", "sigma": "1.4154E-9", "label": "q"}, {"name": "i", "sigma": "1.4173E-7", "title": "inclination; angle with respect to x-y ecliptic plane", "value": "12.80616969785869", "units": "deg", "label": "i"}, {"value": "54.35635462096898", "title": "longitude of the ascending node", "units": "deg", "name": "om", "sigma": "4.2296E-7", "label": "node"}, {"sigma": "2.3842E-7", "name": "w", "value": "293.8224373271698", "title": "argument of perihelion", "units": "deg", "label": "peri"}, {"label": "M", "sigma": "2.1032E-6", "name": "ma", "title": "mean anomaly", "value": "324.1368594651534", "units": "deg"}, {"sigma": "3.0113E-6", "name": "tp", "units": "TDB", "value": "2461250.365452133819", "title": "time of perihelion passage", "label": "tp"}, {"units": "d", "title": "sidereal orbital period", "value": "500.5574665367712", "sigma": "8.836E-7", "name": "per", "label": "period"}, {"units": "deg/d", "title": "mean motion", "value": ".7191981422048256", "name": "n", "sigma": "1.2696E-9", "label": "n"}, {"title": "aphelion distance", "value": "1.617627264740445", "units": "au", "name": "ad", "sigma": "1.9037E-9", "label": "Q"}], "epoch": "2461200.5"}